QIANFAN-65              
1 62795U 25016L   25330.43641091  .00000139  00000+0  19639-3 0  9997
2 62795  88.9751 104.7432 0014550  36.6653 323.5491 13.50979157 45041
QIANFAN-66              
1 62796U 25016M   25330.46518519  .00000133  00000+0  18780-3 0  9999
2 62796  88.9770 104.7072 0015530  31.9109 328.2980 13.50983223 45095
QIANFAN-67              
1 62797U 25016N   25330.46940990  .00000137  00000+0  19321-3 0  9998
2 62797  88.9760 104.7339 0015686  38.5049 321.7218 13.50976081 45062
QIANFAN-68              
1 62798U 25016P   25330.46113311  .00000138  00000+0  19515-3 0  9994
2 62798  88.9764 104.7794 0015690  36.8059 323.4166 13.50978443 45042
QIANFAN-69              
1 62799U 25016Q   25330.47766332  .00000144  00000+0  20493-3 0  9997
2 62799  88.9743 104.6506 0016471  37.5504 322.6794 13.50981406 45086
QIANFAN-70              
1 62800U 25016R   25330.41991096  .00000141  00000+0  19901-3 0  9990
2 62800  88.9763 104.7916 0015825  28.5563 331.6452 13.50972010 45031
QIANFAN-71              
1 62801U 25016S   25330.41583713  .00000132  00000+0  18547-3 0  9999
2 62801  88.9757 104.7725 0016492  41.1037 319.1354 13.50979304 45036
QIANFAN-72              
1 62802U 25016T   25330.43231381  .00000127  00000+0  17729-3 0  9998
2 62802  88.9748 104.7858 0019914  47.0806 313.2012 13.50979222 45029
